STARLINK-1342
1 25558C 20025AD  21325.12621597  .00002541  00000-0  17023-3 0  3253
2 25558  53.0539 292.6709 0001965  59.8801 356.0871 15.06399741    17
